NORAD_CAT_ID,OBJECT_NAME,OBJECT_TYPE,EPOCH,MEAN_MOTION,ECCENTRICITY,INCLINATION,RA_OF_ASC_NODE,ARG_OF_PERICENTER,MEAN_ANOMALY,BSTAR,MEAN_MOTION_DOT,MEAN_MOTION_DDOT,TLE_LINE0,TLE_LINE1,TLE_LINE2,SEMIMAJOR_AXIS,PERIOD,APOGEE,PERIGEE,DECAYED
51801.0,STARLINK-3592,PAYLOAD,2023-01-11 10:42:59,15.08841761,0.0002161,53.2173,126.2241,62.3687,297.7524,0.00010965,1.457e-05,0.0,0 STARLINK-3592,1 51801U 22017AK  23011.44651806  .00001457  00000-0  10965-3 0  9999,2 51801  53.2173 126.2241 0002161  62.3687 297.7524 15.08841761 49828,6917.875,95.437,541.235,538.245,0.0
51801.0,STARLINK-3592,PAYLOAD,2023-01-11 13:53:45,15.08842847,0.0002064,53.2175,125.629,63.4802,296.6402,0.00017428,2.487e-05,0.0,0 STARLINK-3592,1 51801U 22017AK  23011.57899564  .00002487  00000-0  17428-3 0  9993,2 51801  53.2175 125.6290 0002064  63.4802 296.6402 15.08842847 49841,6917.871999999999,95.437,541.165,538.309,0.0
51801.0,STARLINK-3592,PAYLOAD,2023-01-12 16:55:18,15.08862979,0.0002257,53.2144,120.5747,75.4778,284.6464,-0.00021965,-3.785e-05,0.0,0 STARLINK-3592,1 51801U 22017AK  23012.70507032 -.00003785  00000-0 -21965-3 0  9990,2 51801  53.2144 120.5747 0002257  75.4778 284.6464 15.08862979 50011,6917.81,95.436,541.237,538.114,0.0
51801.0,STARLINK-3592,PAYLOAD,2023-01-13 11:59:56,15.08839589,0.0002084,53.2182,117.0046,65.5364,294.5845,-1.263e-05,-4.89e-06,0.0,0 STARLINK-3592,1 51801U 22017AK  23013.49996330 -.00000489  00000-0 -12630-4 0  9998,2 51801  53.2182 117.0046 0002084  65.5364 294.5845 15.08839589 50132,6917.882,95.438,541.188,538.305,0.0
51801.0,STARLINK-3592,PAYLOAD,2023-01-13 13:35:19,15.08848452,0.0001901,53.2165,116.7093,74.0573,286.0628,7.744e-05,9.45e-06,0.0,0 STARLINK-3592,1 51801U 22017AK  23013.56619438  .00000945  00000-0  77440-4 0  9992,2 51801  53.2165 116.7093 0001901  74.0573 286.0628 15.08848452 50140,6917.855,95.437,541.035,538.404,0.0
51801.0,STARLINK-3592,PAYLOAD,2023-01-13 23:07:38,15.0884038,0.000179,53.2168,114.925,70.6295,289.4891,5.3128e-05,5.58e-06,0.0,0 STARLINK-3592,1 51801U 22017AK  23013.96363997  .00000558  00000-0  53128-4 0  9999,2 51801  53.2168 114.9250 0001790  70.6295 289.4891 15.08840380 50205,6917.879,95.438,540.9830000000001,538.506,0.0
51801.0,STARLINK-3592,PAYLOAD,2023-01-14 10:15:19,15.08845398,0.0001994,53.2151,112.8423,90.4527,269.6694,0.00011947,1.614e-05,0.0,0 STARLINK-3592,1 51801U 22017AK  23014.42731388  .00001614  00000-0  11947-3 0  9990,2 51801  53.2151 112.8423 0001994  90.4527 269.6694 15.08845398 50272,6917.8640000000005,95.437,541.1080000000001,538.349,0.0
51801.0,STARLINK-3592,PAYLOAD,2023-01-14 15:01:28,15.08857028,0.0001798,53.2167,111.951,81.5406,278.579,0.00013781,1.907e-05,0.0,0 STARLINK-3592,1 51801U 22017AK  23014.62602597  .00001907  00000-0  13781-3 0  9994,2 51801  53.2167 111.9510 0001798  81.5406 278.5790 15.08857028 50308,6917.828,95.436,540.937,538.45,0.0
51801.0,STARLINK-3592,PAYLOAD,2023-01-14 22:58:26,15.08828465,0.0002523,53.2171,110.4641,85.1104,275.0176,9.099e-06,-1.44e-06,0.0,0 STARLINK-3592,1 51801U 22017AK  23014.95725025 -.00000144  00000-0  90990-5 0  9994,2 51801  53.2171 110.4641 0002523  85.1104 275.0176 15.08828465 50352,6917.916,95.438,541.526,538.035,0.0
51801.0,STARLINK-3592,PAYLOAD,2023-01-15 08:30:45,15.08825942,0.0002142,53.2161,108.6807,87.4239,272.6998,-0.00010425,-1.946e-05,0.0,0 STARLINK-3592,1 51801U 22017AK  23015.35469833 -.00001946  00000-0 -10425-3 0  9996,2 51801  53.2161 108.6807 0002142  87.4239 272.6998 15.08825942 50414,6917.923000000001,95.438,541.27,538.307,0.0
51801.0,STARLINK-3592,PAYLOAD,2023-01-15 11:41:34,15.08685676,0.000173,53.2182,108.0906,91.3394,268.7797,0.0018887,0.00029771,0.0,0 STARLINK-3592,1 51801U 22017AK  23015.48720014  .00029771  00000-0  18887-2 0  9994,2 51801  53.2182 108.0906 0001730  91.3394 268.7797 15.08685676 50432,6918.352,95.447,541.414,539.02,0.0
51801.0,STARLINK-3592,PAYLOAD,2023-01-15 22:49:13,15.08841089,0.0001806,53.2161,106.0064,87.8973,272.2225,8.0602e-05,9.95e-06,0.0,0 STARLINK-3592,1 51801U 22017AK  23015.95084514  .00000995  00000-0  80602-4 0  9997,2 51801  53.2161 106.0064 0001806  87.8973 272.2225 15.08841089 50505,6917.877,95.437,540.991,538.493,0.0
51801.0,STARLINK-3592,PAYLOAD,2023-01-16 13:07:39,15.08859587,0.0001435,53.217,103.3307,100.5368,259.5786,0.00015425,2.169e-05,0.0,0 STARLINK-3592,1 51801U 22017AK  23016.54698960  .00002169  00000-0  15425-3 0  9994,2 51801  53.2170 103.3307 0001435 100.5368 259.5786 15.08859587 50595,6917.821,95.436,540.678,538.693,0.0
51801.0,STARLINK-3592,PAYLOAD,2023-01-16 16:18:25,15.08863216,0.0001591,53.2171,102.7312,113.6214,246.4945,0.00018294,2.626e-05,0.0,0 STARLINK-3592,1 51801U 22017AK  23016.67946431  .00002626  00000-0  18294-3 0  9992,2 51801  53.2171 102.7312 0001591 113.6214 246.4945 15.08863216 50612,6917.809,95.436,540.775,538.5740000000001,0.0
51801.0,STARLINK-3592,PAYLOAD,2023-01-17 08:12:20,15.08809855,7.38e-05,53.2178,99.7654,164.2525,195.849,1.3921e-05,-6.6e-07,0.0,0 STARLINK-3592,1 51801U 22017AK  23017.34190676 -.00000066  00000-0  13921-4 0  9999,2 51801  53.2178  99.7654 0000738 164.2525 195.8490 15.08809855 50714,6917.973000000001,95.439,540.3480000000001,539.327,0.0
51801.0,STARLINK-3592,PAYLOAD,2023-01-18 09:38:29,15.08844297,8.51e-05,53.2178,95.0049,82.3722,277.7367,0.00010554,1.393e-05,0.0,0 STARLINK-3592,1 51801U 22017AK  23018.40172930  .00001393  00000-0  10554-3 0  9991,2 51801  53.2178  95.0049 0000851  82.3722 277.7367 15.08844297 50875,6917.866999999999,95.437,540.321,539.144,0.0
51801.0,STARLINK-3592,PAYLOAD,2023-01-19 11:04:39,15.08847959,0.0001144,53.2168,90.2452,85.2453,274.8669,0.00018095,2.594e-05,0.0,0 STARLINK-3592,1 51801U 22017AK  23019.46156671  .00002594  00000-0  18095-3 0  9994,2 51801  53.2168  90.2452 0001144  85.2453 274.8669 15.08847959 51038,6917.856,95.437,540.512,538.93,0.0
51801.0,STARLINK-3592,PAYLOAD,2023-01-20 02:58:30,15.088460199999998,0.0001149,53.2159,87.2712,85.29,274.8223,-0.00019655,-3.415e-05,0.0,0 STARLINK-3592,1 51801U 22017AK  23020.12396710 -.00003415  00000-0 -19655-3 0  9997,2 51801  53.2159  87.2712 0001149  85.2900 274.8223 15.08846020 51130,6917.861999999999,95.437,540.5219999999999,538.932,0.0
51801.0,STARLINK-3592,PAYLOAD,2023-01-20 10:55:26,15.08849802,0.0001229,53.217,85.78399999999999,89.5788,270.5345,-0.00012882,-2.338e-05,0.0,0 STARLINK-3592,1 51801U 22017AK  23020.45516375 -.00002338  00000-0 -12882-3 0  9992,2 51801  53.2170  85.7840 0001229  89.5788 270.5345 15.08849802 51182,6917.85,95.437,540.566,538.865,0.0
51801.0,STARLINK-3592,PAYLOAD,2023-01-21 02:49:18,15.08835267,0.0001161999999999,53.2168,82.8108,99.0974,261.015,0.0001435,1.996e-05,0.0,0 STARLINK-3592,1 51801U 22017AK  23021.11757201  .00001996  00000-0  14350-3 0  9990,2 51801  53.2168  82.8108 0001162  99.0974 261.0150 15.08835267 51283,6917.895,95.438,540.564,538.956,0.0
51801.0,STARLINK-3592,PAYLOAD,2023-01-22 10:37:00,15.08853825,0.0001259,53.2173,76.8653,109.1445,250.9683,0.00043693,6.675e-05,0.0,0 STARLINK-3592,1 51801U 22017AK  23022.44236573  .00006675  00000-0  43693-3 0  9992,2 51801  53.2173  76.8653 0001259 109.1445 250.9683 15.08853825 51480,6917.838000000001,95.437,540.5740000000001,538.832,0.0
51801.0,STARLINK-3592,PAYLOAD,2023-01-23 02:30:52,15.08839519,0.000173,53.2165,73.8921,90.0745,270.0446,5.8298e-05,6.4e-06,0.0,0 STARLINK-3592,1 51801U 22017AK  23023.10477124  .00000640  00000-0  58298-4 0  9999,2 51801  53.2165  73.8921 0001730  90.0745 270.0446 15.08839519 51586,6917.882,95.438,540.944,538.55,0.0
51801.0,STARLINK-3592,PAYLOAD,2023-01-24 02:21:39,15.08836903,0.0001320999999999,53.2172,69.4315,96.7757,263.3385,0.00059012,9.115e-05,0.0,0 STARLINK-3592,1 51801U 22017AK  23024.09837785  .00009115  00000-0  59012-3 0  9991,2 51801  53.2172  69.4315 0001321  96.7757 263.3385 15.08836903 51732,6917.89,95.438,540.669,538.841,0.0
51801.0,STARLINK-3592,PAYLOAD,2023-01-25 03:47:50,15.08838217,0.0001443999999999,53.2168,64.6731,82.8412,277.2745,0.00032687,4.918e-05,0.0,0 STARLINK-3592,1 51801U 22017AK  23025.15822195  .00004918  00000-0  32687-3 0  9993,2 51801  53.2168  64.6731 0001444  82.8412 277.2745 15.08838217 51897,6917.886,95.438,540.75,538.752,0.0
51801.0,STARLINK-3592,PAYLOAD,2023-01-25 10:09:22,15.08839366,0.0001079,53.2166,63.4825,95.5409,264.5706,0.00029095,4.346e-05,0.0,0 STARLINK-3592,1 51801U 22017AK  23025.42318178  .00004346  00000-0  29095-3 0  9998,2 51801  53.2166  63.4825 0001079  95.5409 264.5706 15.08839366 51934,6917.882,95.438,540.494,539.001,0.0
51801.0,STARLINK-3592,PAYLOAD,2023-01-25 19:41:41,15.0883891,9.81e-05,53.2162,61.6966,94.4382,265.6722,0.00030952,4.641e-05,0.0,0 STARLINK-3592,1 51801U 22017AK  23025.82062324  .00004641  00000-0  30952-3 0  9993,2 51801  53.2162  61.6966 0000981  94.4382 265.6722 15.08838910 51995,6917.884,95.438,540.427,539.07,0.0
51801.0,STARLINK-3592,PAYLOAD,2023-01-26 02:03:14,15.0884177,9.84e-05,53.216,60.5062,97.3172,262.7932,0.00032625,4.909e-05,0.0,0 STARLINK-3592,1 51801U 22017AK  23026.08558310  .00004909  00000-0  32625-3 0  9993,2 51801  53.2160  60.5062 0000984  97.3172 262.7932 15.08841770 52035,6917.875,95.437,540.4209999999999,539.059,0.0
51801.0,STARLINK-3592,PAYLOAD,2023-01-26 08:24:46,15.08847913,0.0001051,53.2155,59.3182,92.36,267.7513,0.00048751,7.481e-05,0.0,0 STARLINK-3592,1 51801U 22017AK  23026.35054141  .00007481  00000-0  48751-3 0  9991,2 51801  53.2155  59.3182 0001051  92.3600 267.7513 15.08847913 52074,6917.856,95.437,540.448,538.994,0.0
51801.0,STARLINK-3592,PAYLOAD,2023-01-27 08:15:33,15.08845979,0.0001186,53.2177,54.8583,96.6659,263.4468,0.00018435,2.648e-05,0.0,0 STARLINK-3592,1 51801U 22017AK  23027.34413940  .00002648  00000-0  18435-3 0  9993,2 51801  53.2177  54.8583 0001186  96.6659 263.4468 15.08845979 52222,6917.861999999999,95.437,540.548,538.9069999999999,0.0
